{
"type": "FeatureCollection",
"name": "11",
"crs": { "type": "name", "properties": { "name": "urn:ogc:def:crs:OGC:1.3:CRS84" } },
"features": [
{ "type": "Feature", "properties": { "id_geometrie": "11" }, "geometry": { "type": "MultiPolygon", "coordinates": [ [ [ [ 7.722868684096925, 48.634955938111695 ], [ 7.724945052943015, 48.635039381230719 ], [ 7.724341783616111, 48.634140042564752 ], [ 7.723556130539211, 48.631692276756425 ], [ 7.723163304000763, 48.63166446055348 ], [ 7.722910772654616, 48.633908251650418 ], [ 7.722868684096925, 48.634955938111695 ] ] ] ] } }
]
}
