{
"type": "FeatureCollection",
"name": "16",
"crs": { "type": "name", "properties": { "name": "urn:ogc:def:crs:OGC:1.3:CRS84" } },
"features": [
{ "type": "Feature", "properties": { "id_geometrie": "16" }, "geometry": { "type": "MultiPolygon", "coordinates": [ [ [ [ 7.742449723450762, 48.571393987099491 ], [ 7.742746337333007, 48.571733471952236 ], [ 7.743227332817733, 48.572603391483639 ], [ 7.743387664645975, 48.572704173876552 ], [ 7.745369766872614, 48.57245619578562 ], [ 7.745289600958492, 48.572334195422869 ], [ 7.744888771387888, 48.572281151695087 ], [ 7.745209435044373, 48.571771929076952 ], [ 7.7456262977978, 48.571856799869458 ], [ 7.74589886190581, 48.571607491511109 ], [ 7.744463892043048, 48.571289223735469 ], [ 7.743012888997461, 48.570997476514606 ], [ 7.742449723450762, 48.571393987099491 ] ] ] ] } }
]
}
