{
"type": "FeatureCollection",
"name": "17",
"crs": { "type": "name", "properties": { "name": "urn:ogc:def:crs:OGC:1.3:CRS84" } },
"features": [
{ "type": "Feature", "properties": { "id_geometrie": "17" }, "geometry": { "type": "MultiPolygon", "coordinates": [ [ [ [ 7.78231823669091, 48.56667411586632 ], [ 7.789116306208355, 48.560498761060721 ], [ 7.780554586580251, 48.555532464909881 ], [ 7.780554586580251, 48.557909556378824 ], [ 7.778983334663482, 48.559501296261857 ], [ 7.777123485455876, 48.55937395891435 ], [ 7.77439784437577, 48.560222868509676 ], [ 7.774173379816232, 48.560689762714588 ], [ 7.776418025411615, 48.561496206190732 ], [ 7.779271931954317, 48.563703248905206 ], [ 7.78231823669091, 48.56667411586632 ] ] ] ] } }
]
}
