{
"type": "FeatureCollection",
"name": "18",
"crs": { "type": "name", "properties": { "name": "urn:ogc:def:crs:OGC:1.3:CRS84" } },
"features": [
{ "type": "Feature", "properties": { "id_geometrie": "18" }, "geometry": { "type": "MultiPolygon", "coordinates": [ [ [ [ 7.716473785854901, 48.5863526688386 ], [ 7.716575818724945, 48.585329002870544 ], [ 7.717085983075174, 48.585351501246528 ], [ 7.717307054293607, 48.584642797591627 ], [ 7.718463426820789, 48.584890282536875 ], [ 7.718582465169176, 48.584901531823782 ], [ 7.718693000778392, 48.583613472203879 ], [ 7.719007602127698, 48.580142859984143 ], [ 7.719007602127698, 48.579974104530393 ], [ 7.719016104866869, 48.57957471437868 ], [ 7.71906712130189, 48.579389081262143 ], [ 7.719279689781151, 48.579141569379658 ], [ 7.719339208955344, 48.577054545998422 ], [ 7.721822008793116, 48.576784520505868 ], [ 7.722247145751638, 48.576852027014212 ], [ 7.724789464763604, 48.577167056194639 ], [ 7.724738448328579, 48.579602840548986 ], [ 7.724738448328579, 48.580913502728691 ], [ 7.724678929154387, 48.581684133724139 ], [ 7.72303790049449, 48.58162225867656 ], [ 7.722808326536887, 48.581987882859103 ], [ 7.722876348450248, 48.582910369041961 ], [ 7.722927364885273, 48.584091576767101 ], [ 7.722621266275135, 48.584946528946311 ], [ 7.722417200535044, 48.585149015502047 ], [ 7.722179123838274, 48.585149015502047 ], [ 7.721890030706478, 48.585418996314395 ], [ 7.720699647222614, 48.585790217576452 ], [ 7.717400584424477, 48.58619518311616 ], [ 7.716473785854901, 48.5863526688386 ] ] ] ] } }
]
}
