{
"type": "FeatureCollection",
"name": "27",
"crs": { "type": "name", "properties": { "name": "urn:ogc:def:crs:OGC:1.3:CRS84" } },
"features": [
{ "type": "Feature", "properties": { "id_geometrie": "27" }, "geometry": { "type": "MultiPolygon", "coordinates": [ [ [ [ 7.719970624414595, 48.663764338942677 ], [ 7.718829989835081, 48.663319580795942 ], [ 7.718933059224796, 48.662330206760913 ], [ 7.71912201977261, 48.660939150326755 ], [ 7.720936041031595, 48.660993613290991 ], [ 7.722557666096443, 48.661501931452719 ], [ 7.722846260387645, 48.661347621124079 ], [ 7.724619053890747, 48.661910397689333 ], [ 7.72552606452024, 48.661420237808166 ], [ 7.72670792685564, 48.661792396672091 ], [ 7.724880163011357, 48.663562382923736 ], [ 7.724220518917182, 48.662981471211552 ], [ 7.723574617408301, 48.662645628573607 ], [ 7.72301117141119, 48.66296331761265 ], [ 7.722351527317014, 48.662763627593293 ], [ 7.722241586634652, 48.662809011758078 ], [ 7.721612863357386, 48.662611590343509 ], [ 7.721406724577958, 48.662788588888972 ], [ 7.720355416802863, 48.662439129624389 ], [ 7.720059951219014, 48.66238012976924 ], [ 7.719950010536651, 48.662829434618878 ], [ 7.719970624414595, 48.663764338942677 ] ] ] ] } }
]
}
