{
"type": "FeatureCollection",
"name": "31",
"crs": { "type": "name", "properties": { "name": "urn:ogc:def:crs:OGC:1.3:CRS84" } },
"features": [
{ "type": "Feature", "properties": { "id_geometrie": "31" }, "geometry": { "type": "MultiPolygon", "coordinates": [ [ [ [ 7.626631290110382, 48.52347036285569 ], [ 7.626821755493906, 48.522923719714228 ], [ 7.627583617028002, 48.520968370953568 ], [ 7.631932576618474, 48.521136575964817 ], [ 7.632186530463171, 48.520379649015503 ], [ 7.633107113150206, 48.519286290120185 ], [ 7.637392584279502, 48.520421700809422 ], [ 7.643265266938166, 48.521304780417523 ], [ 7.64151933425586, 48.522398095745274 ], [ 7.645328641926348, 48.523218066754275 ], [ 7.649677601516816, 48.523806755702651 ], [ 7.654312259182574, 48.524206219306556 ], [ 7.658724707234218, 48.524185194984895 ], [ 7.658915172617743, 48.524647728045395 ], [ 7.653264699573191, 48.524437486268809 ], [ 7.652121907272046, 48.524437486268809 ], [ 7.652058418810871, 48.52578301855813 ], [ 7.651550511121473, 48.526476794676768 ], [ 7.648947484213308, 48.525825065866165 ], [ 7.648757018829784, 48.526371677693938 ], [ 7.648661786138019, 48.526687027987855 ], [ 7.644439803469901, 48.526371677693938 ], [ 7.644566780392248, 48.525425615030336 ], [ 7.644820734236949, 48.524857968949235 ], [ 7.639646424651207, 48.523932902444244 ], [ 7.640217820801778, 48.523007819043087 ], [ 7.639043284270048, 48.522650395931123 ], [ 7.637043397743042, 48.522440145863534 ], [ 7.6348847900631, 48.522356045592119 ], [ 7.632884903536096, 48.522356045592119 ], [ 7.631138970853788, 48.522671420889871 ], [ 7.627774082411529, 48.523239091477386 ], [ 7.626631290110382, 48.52347036285569 ] ] ] ] } }
]
}
