{
"type": "FeatureCollection",
"name": "33",
"crs": { "type": "name", "properties": { "name": "urn:ogc:def:crs:OGC:1.3:CRS84" } },
"features": [
{ "type": "Feature", "properties": { "id_geometrie": "33" }, "geometry": { "type": "MultiPolygon", "coordinates": [ [ [ [ 7.762490701233475, 48.585530736922195 ], [ 7.762237331190716, 48.584986019016512 ], [ 7.76203674657353, 48.585027920602307 ], [ 7.761920618637268, 48.584790477823439 ], [ 7.762047303658647, 48.584727625136424 ], [ 7.761720034020082, 48.584266703043284 ], [ 7.76756865917377, 48.582674394378479 ], [ 7.76720971827986, 48.582024885650519 ], [ 7.769342249473083, 48.581438225432052 ], [ 7.769352806558198, 48.584420344208048 ], [ 7.768835509387564, 48.584525099279887 ], [ 7.768392111812737, 48.583924500588573 ], [ 7.764243177362557, 48.585069822153358 ], [ 7.762490701233475, 48.585530736922195 ] ] ] ] } }
]
}
