{
"type": "FeatureCollection",
"name": "7",
"crs": { "type": "name", "properties": { "name": "urn:ogc:def:crs:OGC:1.3:CRS84" } },
"features": [
{ "type": "Feature", "properties": { "id_geometrie": "7" }, "geometry": { "type": "MultiPolygon", "coordinates": [ [ [ [ 7.719693058958622, 48.629331981605723 ], [ 7.720225627005053, 48.625565558647473 ], [ 7.716710677898593, 48.625600760163366 ], [ 7.715485771391797, 48.627501605559402 ], [ 7.715485771391797, 48.628240803877802 ], [ 7.717616043577531, 48.628592799271331 ], [ 7.71729650274967, 48.628979991368325 ], [ 7.719693058958622, 48.629331981605723 ] ] ] ] } }
]
}
