{
"type": "FeatureCollection",
"name": "9",
"crs": { "type": "name", "properties": { "name": "urn:ogc:def:crs:OGC:1.3:CRS84" } },
"features": [
{ "type": "Feature", "properties": { "id_geometrie": "9" }, "geometry": { "type": "MultiPolygon", "coordinates": [ [ [ [ 7.69054144260987, 48.549025564355439 ], [ 7.690267524932623, 48.549094174804395 ], [ 7.689408755998555, 48.548692312280075 ], [ 7.688794292019868, 48.547864073352585 ], [ 7.688209440763047, 48.547026018983807 ], [ 7.688002151709997, 48.546609437086921 ], [ 7.68799474852953, 48.544982284352997 ], [ 7.688231650304446, 48.543786391762012 ], [ 7.687802265837411, 48.541894471182651 ], [ 7.687269236843849, 48.539580938512103 ], [ 7.687772653115545, 48.536737893394552 ], [ 7.686973109625207, 48.536757501149033 ], [ 7.686825046015883, 48.536581031085205 ], [ 7.687476525896901, 48.535816320367068 ], [ 7.68848335844029, 48.535992793096483 ], [ 7.688897936546391, 48.535365331708292 ], [ 7.688897936546391, 48.534737862543516 ], [ 7.688631422049613, 48.534482950973988 ], [ 7.688631422049613, 48.5341496031388 ], [ 7.689549416427409, 48.533365246633778 ], [ 7.690230509030291, 48.533384855694486 ], [ 7.694494740978766, 48.543208040126004 ], [ 7.697041435059104, 48.542012105612073 ], [ 7.696774920562326, 48.540874961342418 ], [ 7.696241891568765, 48.53993385711015 ], [ 7.696182666125035, 48.539110376553921 ], [ 7.697159885946563, 48.538502560883892 ], [ 7.697900203993173, 48.538130025091782 ], [ 7.699114325589614, 48.537777093917754 ], [ 7.70109837795453, 48.537208477406352 ], [ 7.702371724994698, 48.539306444568098 ], [ 7.70204598505419, 48.539561331851168 ], [ 7.702815915822664, 48.540737718064975 ], [ 7.703556233869276, 48.54048283670533 ], [ 7.7045334536908, 48.541953288431529 ], [ 7.703615459313005, 48.541776836479848 ], [ 7.701749857835546, 48.541914076939875 ], [ 7.701424117895038, 48.542051317027784 ], [ 7.70157218150436, 48.54350211805491 ], [ 7.702756690378934, 48.543208040126004 ], [ 7.703881973809784, 48.543208040126004 ], [ 7.703733910200462, 48.543443302605809 ], [ 7.704326164637751, 48.543590341100398 ], [ 7.703970811975378, 48.544345131981338 ], [ 7.703571040230207, 48.544756831353858 ], [ 7.70330452573343, 48.544854854520366 ], [ 7.70311204304131, 48.545256747518181 ], [ 7.704355777359616, 48.54539397854262 ], [ 7.704148488306564, 48.545844877860091 ], [ 7.703970811975378, 48.546070326012391 ], [ 7.703778329283261, 48.546187950736638 ], [ 7.703422976620887, 48.546952504780577 ], [ 7.703082430319448, 48.54781506470723 ], [ 7.702386531355633, 48.547756254270169 ], [ 7.702282886829106, 48.54801109900383 ], [ 7.701113184315464, 48.547913081950455 ], [ 7.701053958871734, 48.548442371783331 ], [ 7.698225943933683, 48.549099075547176 ], [ 7.697159885946563, 48.549481332022907 ], [ 7.694065356511733, 48.550549674552329 ], [ 7.693532327518175, 48.550833908674186 ], [ 7.693088136690209, 48.550961323451929 ], [ 7.693384263908851, 48.549187288836343 ], [ 7.691030052520633, 48.549197090303416 ], [ 7.690793150745717, 48.549177487367352 ], [ 7.69054144260987, 48.549025564355439 ] ] ] ] } }
]
}
