{
"type": "FeatureCollection",
"name": "10",
"crs": { "type": "name", "properties": { "name": "urn:ogc:def:crs:OGC:1.3:CRS84" } },
"features": [
{ "type": "Feature", "properties": { "id_geometrie": "10" }, "geometry": { "type": "MultiPolygon", "coordinates": [ [ [ [ 7.752758331607731, 48.653607441056046 ], [ 7.752588143442171, 48.652493369852479 ], [ 7.751814560871454, 48.652288950445069 ], [ 7.751613429403065, 48.652115193297128 ], [ 7.751628901054478, 48.651757456107063 ], [ 7.75278927491056, 48.651961877669329 ], [ 7.752634558396416, 48.652248066464139 ], [ 7.753516442527037, 48.652462706994214 ], [ 7.753439084269965, 48.652646683864162 ], [ 7.754444741611898, 48.65285110182122 ], [ 7.754336440051999, 48.653147506386809 ], [ 7.754506628217555, 48.65315772720281 ], [ 7.754522099868971, 48.652902206180968 ], [ 7.754939834457161, 48.652983973048862 ], [ 7.755295682439691, 48.652248066464139 ], [ 7.755512285559492, 48.65231961340902 ], [ 7.755620587119394, 48.652176519417715 ], [ 7.755357569045349, 48.652094751240355 ], [ 7.756115679964655, 48.651256619776859 ], [ 7.754785117943015, 48.651195292537416 ], [ 7.75493983445716, 48.650214046561807 ], [ 7.753052292984603, 48.650142496629137 ], [ 7.753005878030359, 48.650612680042393 ], [ 7.752510785185098, 48.650561573362026 ], [ 7.752417955276611, 48.650796663662817 ], [ 7.751458712888919, 48.65072511455687 ], [ 7.751381354631848, 48.651225956166449 ], [ 7.751056449952144, 48.651225956166449 ], [ 7.750576828758299, 48.651195292537416 ], [ 7.750530413804056, 48.651358831676852 ], [ 7.749834189490409, 48.651287283368617 ], [ 7.750019849307381, 48.650285596392941 ], [ 7.750979091695073, 48.650173160898426 ], [ 7.751071921603561, 48.649447434856789 ], [ 7.74991154774748, 48.649334997493334 ], [ 7.750081735913039, 48.648742141794543 ], [ 7.749772302884752, 48.648701254937698 ], [ 7.74966400132485, 48.648987462239411 ], [ 7.749246266736662, 48.648977240578049 ], [ 7.749308153342319, 48.648578594168242 ], [ 7.748735702239987, 48.648435489560136 ], [ 7.74762174333815, 48.64824127551384 ], [ 7.746059106545295, 48.648149279125555 ], [ 7.745022505900532, 48.648159500954755 ], [ 7.743336095896361, 48.648118613625513 ], [ 7.740628556898844, 48.647842623285854 ], [ 7.739870445979538, 48.648476376632459 ], [ 7.748101364531998, 48.651726792801242 ], [ 7.750917205089417, 48.652830660062804 ], [ 7.751071921603561, 48.652217403456675 ], [ 7.751412297934677, 48.652135635345616 ], [ 7.751628901054478, 48.652340055374623 ], [ 7.751597957751651, 48.653024856433071 ], [ 7.752758331607731, 48.653607441056046 ] ] ] ] } }
]
}
