{
"type": "FeatureCollection",
"name": "12",
"crs": { "type": "name", "properties": { "name": "urn:ogc:def:crs:OGC:1.3:CRS84" } },
"features": [
{ "type": "Feature", "properties": { "id_geometrie": "12" }, "geometry": { "type": "MultiPolygon", "coordinates": [ [ [ [ 7.724047163712274, 48.62778858635501 ], [ 7.723696425731516, 48.627732949629795 ], [ 7.724369842654571, 48.623541473296847 ], [ 7.725688617462222, 48.623560020419056 ], [ 7.725506233712229, 48.62432971998043 ], [ 7.724201488423807, 48.627389855135576 ], [ 7.724047163712274, 48.62778858635501 ] ] ] ] } }
]
}
