{
"type": "FeatureCollection",
"name": "13",
"crs": { "type": "name", "properties": { "name": "urn:ogc:def:crs:OGC:1.3:CRS84" } },
"features": [
{ "type": "Feature", "properties": { "id_geometrie": "13" }, "geometry": { "type": "MultiPolygon", "coordinates": [ [ [ [ 7.630169344133572, 48.585981823189655 ], [ 7.630666372801121, 48.584857587807363 ], [ 7.631644396953391, 48.58504849746528 ], [ 7.632446056094595, 48.583266645946914 ], [ 7.634915166249508, 48.583669689288008 ], [ 7.633969208462886, 48.585716675588912 ], [ 7.633440113429693, 48.585578798286768 ], [ 7.633103416590385, 48.586427268027286 ], [ 7.632798786116727, 48.586384844878573 ], [ 7.632846885665198, 48.586522719981687 ], [ 7.630169344133572, 48.585981823189655 ] ] ] ] } }
]
}
