{
"type": "FeatureCollection",
"name": "15",
"crs": { "type": "name", "properties": { "name": "urn:ogc:def:crs:OGC:1.3:CRS84" } },
"features": [
{ "type": "Feature", "properties": { "id_geometrie": "15" }, "geometry": { "type": "MultiPolygon", "coordinates": [ [ [ [ 7.751123675358655, 48.57176795075511 ], [ 7.750538464185577, 48.571640644289239 ], [ 7.750730862379466, 48.570945757513492 ], [ 7.750714829196641, 48.570823753506275 ], [ 7.751989467231156, 48.570781317260845 ], [ 7.752181865425047, 48.570707053745664 ], [ 7.752975507974838, 48.570680531035237 ], [ 7.753047657297548, 48.570760099124776 ], [ 7.754644963136395, 48.570856906798227 ], [ 7.75479327007752, 48.570734902576639 ], [ 7.756464729386939, 48.570862211322918 ], [ 7.756320430741521, 48.571305137171869 ], [ 7.75646072109123, 48.571252092364524 ], [ 7.756857542366129, 48.571830277762146 ], [ 7.756997832715842, 48.572246673242205 ], [ 7.756973782941604, 48.572673673963067 ], [ 7.756813451113365, 48.572994585174811 ], [ 7.756532870413942, 48.573095366787982 ], [ 7.755807368891147, 48.573180235359054 ], [ 7.755562862853078, 48.573145757519249 ], [ 7.755326373406423, 48.573060888890303 ], [ 7.75565505365432, 48.572222803530288 ], [ 7.755723194681321, 48.5720822372203 ], [ 7.755715178089909, 48.572018584423091 ], [ 7.755586912627316, 48.571965540364204 ], [ 7.755406539320544, 48.571936366108091 ], [ 7.755222157718067, 48.571981453587703 ], [ 7.754175992538791, 48.572112737490563 ], [ 7.753688984610506, 48.572144563839927 ], [ 7.753644893357739, 48.571908517938823 ], [ 7.753240055491429, 48.571940344416717 ], [ 7.752510545672932, 48.571953605443277 ], [ 7.751997483822559, 48.571924431180271 ], [ 7.751408264353769, 48.571818342809294 ], [ 7.751123675358655, 48.57176795075511 ] ] ] ] } }
]
}
