{
"type": "FeatureCollection",
"name": "19",
"crs": { "type": "name", "properties": { "name": "urn:ogc:def:crs:OGC:1.3:CRS84" } },
"features": [
{ "type": "Feature", "properties": { "id_geometrie": "19" }, "geometry": { "type": "MultiPolygon", "coordinates": [ [ [ [ 7.694888206883848, 48.563255961899003 ], [ 7.699872982618474, 48.564088442939507 ], [ 7.701985175726366, 48.564709688519109 ], [ 7.7037218678373, 48.565970793577122 ], [ 7.702585977321499, 48.563268387089877 ], [ 7.701844362852507, 48.56318141068958 ], [ 7.698051802783224, 48.562025852891871 ], [ 7.695000857182936, 48.561653086680266 ], [ 7.694888206883848, 48.563255961899003 ] ] ] ] } }
]
}
