{
"type": "FeatureCollection",
"name": "2",
"crs": { "type": "name", "properties": { "name": "urn:ogc:def:crs:OGC:1.3:CRS84" } },
"features": [
{ "type": "Feature", "properties": { "id_geometrie": "2" }, "geometry": { "type": "MultiPolygon", "coordinates": [ [ [ [ 7.73691818, 48.58084584 ], [ 7.73747383, 48.58133175 ], [ 7.73749606, 48.58172236 ], [ 7.73763129, 48.58175391 ], [ 7.73774271, 48.58231102 ], [ 7.73747256, 48.58287117 ], [ 7.73770452, 48.58292681 ], [ 7.73768143, 48.58307815 ], [ 7.73805807, 48.58314002 ], [ 7.73805615, 48.58345645 ], [ 7.7382059, 48.58351999 ], [ 7.73786867, 48.58369743 ], [ 7.73797363, 48.58381546 ], [ 7.7388136, 48.58374916 ], [ 7.73881466, 48.58404415 ], [ 7.73908736, 48.58428504 ], [ 7.7389791, 48.58444604 ], [ 7.73870528, 48.58447545 ], [ 7.73877257, 48.58494073 ], [ 7.74007775, 48.58499264 ], [ 7.74042601, 48.58458234 ], [ 7.7410355, 48.58487677 ], [ 7.74103811, 48.58513185 ], [ 7.7434957, 48.58586339 ], [ 7.74330899, 48.5862167 ], [ 7.7436423, 48.58624018 ], [ 7.74404957, 48.58650757 ], [ 7.74459026, 48.58666123 ], [ 7.7446224, 48.58681915 ], [ 7.74512649, 48.58691948 ], [ 7.74547152, 48.58688829 ], [ 7.74651321, 48.58711811 ], [ 7.74649527, 48.58728404 ], [ 7.74676627, 48.5873625 ], [ 7.74677229, 48.58745195 ], [ 7.74766373, 48.58774172 ], [ 7.74695771, 48.58884313 ], [ 7.74714686, 48.58897485 ], [ 7.74698039, 48.58897031 ], [ 7.74670589, 48.58938103 ], [ 7.74704893, 48.5894832 ], [ 7.74706877, 48.58955247 ], [ 7.74656563, 48.59028745 ], [ 7.74643417, 48.59027552 ], [ 7.74612137, 48.59061397 ], [ 7.74457558, 48.59009811 ], [ 7.74441988, 48.59013601 ], [ 7.74428461, 48.5902952 ], [ 7.74133516, 48.58953306 ], [ 7.74055807, 48.58985259 ], [ 7.74070748, 48.5900291 ], [ 7.74051827, 48.59010849 ], [ 7.74055558, 48.59021823 ], [ 7.74041278, 48.59027565 ], [ 7.74058558, 48.59047188 ], [ 7.74095662, 48.59041193 ], [ 7.74093794, 48.59048488 ], [ 7.74066774, 48.59056312 ], [ 7.74101958, 48.59096849 ], [ 7.74093027, 48.59111556 ], [ 7.7413768, 48.59132269 ], [ 7.74128844, 48.5914887 ], [ 7.74155966, 48.59161796 ], [ 7.74158307, 48.59221014 ], [ 7.74294237, 48.59256545 ], [ 7.74384712, 48.59259294 ], [ 7.74411928, 48.59207768 ], [ 7.74481543, 48.5921889 ], [ 7.74491186, 48.59194069 ], [ 7.74534468, 48.59200111 ], [ 7.74544021, 48.59175353 ], [ 7.74564208, 48.59176035 ], [ 7.74570902, 48.59158373 ], [ 7.74602253, 48.5913746 ], [ 7.74631396, 48.59141836 ], [ 7.74639444, 48.59131945 ], [ 7.74709011, 48.59151629 ], [ 7.74725457, 48.59113233 ], [ 7.74755714, 48.59117542 ], [ 7.74767252, 48.59091515 ], [ 7.74840885, 48.59095133 ], [ 7.74847871, 48.59077419 ], [ 7.74862323, 48.59066901 ], [ 7.74898958, 48.59072425 ], [ 7.74893182, 48.59103451 ], [ 7.74969628, 48.59112403 ], [ 7.74982005, 48.59057244 ], [ 7.74963265, 48.59053703 ], [ 7.74967096, 48.59035518 ], [ 7.75095269, 48.59019162 ], [ 7.75116543, 48.58993366 ], [ 7.75181965, 48.58997652 ], [ 7.75229278, 48.58961843 ], [ 7.75270272, 48.58966491 ], [ 7.75288266, 48.58992808 ], [ 7.75295158, 48.58991021 ], [ 7.75326807, 48.58981887 ], [ 7.75316694, 48.58957714 ], [ 7.75359693, 48.58945246 ], [ 7.75355616, 48.58930568 ], [ 7.75397231, 48.58918259 ], [ 7.75469341, 48.59023347 ], [ 7.75580245, 48.58991667 ], [ 7.75650611, 48.58924859 ], [ 7.75609488, 48.58862411 ], [ 7.75611563, 48.58855126 ], [ 7.75642231, 48.5884683 ], [ 7.75653526, 48.58860556 ], [ 7.75686276, 48.58847481 ], [ 7.7569549, 48.58828395 ], [ 7.75724282, 48.58819523 ], [ 7.75822973, 48.58796684 ], [ 7.75834019, 48.58809531 ], [ 7.75850863, 48.58804734 ], [ 7.75857435, 48.58773484 ], [ 7.75931292, 48.58760623 ], [ 7.75959487, 48.58762026 ], [ 7.75966712, 48.58769327 ], [ 7.7598989, 48.58762868 ], [ 7.75990211, 48.58751708 ], [ 7.76022831, 48.58754678 ], [ 7.76028523, 48.58744864 ], [ 7.76078236, 48.58749368 ], [ 7.76082841, 48.58736413 ], [ 7.76136174, 48.58720397 ], [ 7.76166492, 48.58734115 ], [ 7.76241103, 48.58693569 ], [ 7.76263245, 48.58707222 ], [ 7.7635923, 48.58664654 ], [ 7.76389871, 48.58686386 ], [ 7.76429045, 48.58653677 ], [ 7.76409945, 48.58644565 ], [ 7.76423396, 48.58627283 ], [ 7.76502317, 48.58629186 ], [ 7.76567414, 48.58671676 ], [ 7.765916, 48.58665378 ], [ 7.76560793, 48.58608272 ], [ 7.76677206, 48.58574908 ], [ 7.76671747, 48.58560118 ], [ 7.76695622, 48.58551097 ], [ 7.76748517, 48.5853851 ], [ 7.76765344, 48.58560082 ], [ 7.76839495, 48.58535709 ], [ 7.76910853, 48.58533336 ], [ 7.7691316, 48.58523518 ], [ 7.7694222, 48.58519809 ], [ 7.76982734, 48.5853562 ], [ 7.76986629, 48.58549086 ], [ 7.77029103, 48.58544754 ], [ 7.77060499, 48.58531516 ], [ 7.77124085, 48.5855792 ], [ 7.77154218, 48.58481669 ], [ 7.77175139, 48.58476552 ], [ 7.77153463, 48.58456602 ], [ 7.77139039, 48.58459107 ], [ 7.77112355, 48.58431149 ], [ 7.77117013, 48.58423111 ], [ 7.77109501, 48.58410841 ], [ 7.77252167, 48.58335225 ], [ 7.76994864, 48.58110975 ], [ 7.76094966, 48.58353501 ], [ 7.76048683, 48.58325356 ], [ 7.76038547, 48.58305128 ], [ 7.75888408, 48.58297655 ], [ 7.75888884, 48.58273262 ], [ 7.75855168, 48.58265404 ], [ 7.7585376, 48.58247648 ], [ 7.75777946, 48.5823517 ], [ 7.75770572, 48.582203 ], [ 7.75833942, 48.58197635 ], [ 7.75823817, 48.58182315 ], [ 7.75827489, 48.58163426 ], [ 7.75724225, 48.58150489 ], [ 7.7572765, 48.58119396 ], [ 7.75634868, 48.58116716 ], [ 7.75641317, 48.57992145 ], [ 7.75443101, 48.57830793 ], [ 7.7542822, 48.5783833 ], [ 7.75413944, 48.57828516 ], [ 7.753918, 48.57840158 ], [ 7.75369264, 48.57823519 ], [ 7.75350473, 48.57822462 ], [ 7.75326815, 48.57834548 ], [ 7.75304287, 48.57823697 ], [ 7.75272081, 48.57839009 ], [ 7.75232097, 48.578057 ], [ 7.75126103, 48.57858538 ], [ 7.75076603, 48.57794819 ], [ 7.74969603, 48.57826691 ], [ 7.74956072, 48.57756088 ], [ 7.74907722, 48.57746789 ], [ 7.74892152, 48.57725304 ], [ 7.74854972, 48.57732681 ], [ 7.7484629, 48.57742148 ], [ 7.74849485, 48.57755802 ], [ 7.74812355, 48.5778982 ], [ 7.74794032, 48.57784327 ], [ 7.74794779, 48.57773513 ], [ 7.747444, 48.57761994 ], [ 7.74726396, 48.57766509 ], [ 7.74723281, 48.57757199 ], [ 7.74690819, 48.57754755 ], [ 7.74666685, 48.57756777 ], [ 7.74665427, 48.57778749 ], [ 7.7464666, 48.57782365 ], [ 7.74595073, 48.57784818 ], [ 7.74588722, 48.57775137 ], [ 7.7448069, 48.57777764 ], [ 7.74484511, 48.57816598 ], [ 7.74445501, 48.57844986 ], [ 7.74381766, 48.57840985 ], [ 7.743724, 48.5785671 ], [ 7.74316114, 48.57849355 ], [ 7.74301669, 48.57868234 ], [ 7.74273865, 48.57851391 ], [ 7.74212798, 48.57835572 ], [ 7.74202583, 48.57841875 ], [ 7.74195653, 48.5786775 ], [ 7.74142082, 48.57876506 ], [ 7.74142848, 48.57903497 ], [ 7.74084364, 48.57935652 ], [ 7.73965594, 48.57934766 ], [ 7.73954373, 48.57946308 ], [ 7.73864272, 48.57900826 ], [ 7.73840212, 48.57925503 ], [ 7.73733946, 48.57996699 ], [ 7.73748941, 48.58007507 ], [ 7.73755101, 48.58023516 ], [ 7.73694599, 48.58032355 ], [ 7.73722141, 48.58064621 ], [ 7.7371768, 48.580739 ], [ 7.73691818, 48.58084584 ] ] ] ] } }
]
}
