{
"type": "FeatureCollection",
"name": "20",
"crs": { "type": "name", "properties": { "name": "urn:ogc:def:crs:OGC:1.3:CRS84" } },
"features": [
{ "type": "Feature", "properties": { "id_geometrie": "20" }, "geometry": { "type": "MultiPolygon", "coordinates": [ [ [ [ 7.786473909575133, 48.66998916176518 ], [ 7.785113800823744, 48.66998916176518 ], [ 7.784401968206193, 48.669896822424384 ], [ 7.782965591674354, 48.669770904868791 ], [ 7.781300411801158, 48.669796088405086 ], [ 7.779647943224706, 48.669426728611356 ], [ 7.778936110607157, 48.668981814355959 ], [ 7.779469985070318, 48.668855894513847 ], [ 7.780321641952029, 48.66875515841361 ], [ 7.781770729780612, 48.668738369043986 ], [ 7.783359641873353, 48.668973419709602 ], [ 7.785329892868357, 48.669418334039115 ], [ 7.786461198278388, 48.669586225218055 ], [ 7.786473909575133, 48.66998916176518 ] ] ] ] } }
]
}
