{
"type": "FeatureCollection",
"name": "22",
"crs": { "type": "name", "properties": { "name": "urn:ogc:def:crs:OGC:1.3:CRS84" } },
"features": [
{ "type": "Feature", "properties": { "id_geometrie": "22" }, "geometry": { "type": "MultiPolygon", "coordinates": [ [ [ [ 7.647452476997482, 48.520774667731928 ], [ 7.64753442165915, 48.520221050331664 ], [ 7.646182334741628, 48.519976805437409 ], [ 7.646198723673961, 48.519884534837551 ], [ 7.647575393989984, 48.520128780176684 ], [ 7.647714699914819, 48.519412323842481 ], [ 7.65000915044152, 48.519813974853641 ], [ 7.650074706170855, 48.520671543380637 ], [ 7.64991081684752, 48.521241438485653 ], [ 7.647452476997482, 48.520774667731928 ] ] ] ] } }
]
}
