{
"type": "FeatureCollection",
"name": "23",
"crs": { "type": "name", "properties": { "name": "urn:ogc:def:crs:OGC:1.3:CRS84" } },
"features": [
{ "type": "Feature", "properties": { "id_geometrie": "23" }, "geometry": { "type": "MultiPolygon", "coordinates": [ [ [ [ 7.677788390746951, 48.521458539696248 ], [ 7.677935891137953, 48.520948350375321 ], [ 7.679918951950316, 48.52082894362195 ], [ 7.680459786717326, 48.519124652917739 ], [ 7.676919777333271, 48.518603584441827 ], [ 7.677280333844609, 48.517583143150802 ], [ 7.677280333844609, 48.51748544024683 ], [ 7.676805054806936, 48.517420304872822 ], [ 7.676682137814432, 48.517436588724181 ], [ 7.676772276942267, 48.516866650812524 ], [ 7.678222697453793, 48.516893790858461 ], [ 7.678288253183127, 48.516329274908749 ], [ 7.678124363859789, 48.516334702976678 ], [ 7.678165336190624, 48.515129657629629 ], [ 7.678394781243292, 48.515102516638606 ], [ 7.678386586777128, 48.514695400028593 ], [ 7.675698801874417, 48.514717112997047 ], [ 7.675698801874417, 48.51732802961628 ], [ 7.675772552069921, 48.517442016673463 ], [ 7.675452967889414, 48.518516739174743 ], [ 7.675067827979574, 48.519765125576441 ], [ 7.676370748100094, 48.519868251773055 ], [ 7.67601838605492, 48.521122032423186 ], [ 7.67737866743861, 48.521469394732357 ], [ 7.677788390746951, 48.521458539696248 ] ] ] ] } }
]
}
