{
"type": "FeatureCollection",
"name": "24",
"crs": { "type": "name", "properties": { "name": "urn:ogc:def:crs:OGC:1.3:CRS84" } },
"features": [
{ "type": "Feature", "properties": { "id_geometrie": "24" }, "geometry": { "type": "MultiPolygon", "coordinates": [ [ [ [ 7.799345101865166, 48.575260068333456 ], [ 7.801000384030859, 48.571009236599515 ], [ 7.800000659158511, 48.570586302671053 ], [ 7.799230379338832, 48.571497232890536 ], [ 7.79611648219545, 48.571085147443014 ], [ 7.799427046526835, 48.572635872587533 ], [ 7.798853433895157, 48.573861237139035 ], [ 7.797935653684478, 48.573969675049533 ], [ 7.798886211759826, 48.574197393904583 ], [ 7.798804267098157, 48.574707046673161 ], [ 7.798345376992819, 48.574739577526515 ], [ 7.798148709804816, 48.5750974155319 ], [ 7.799115656812496, 48.575195007275624 ], [ 7.799345101865166, 48.575260068333456 ] ] ], [ [ [ 7.794231754977088, 48.573644360620293 ], [ 7.79460870042076, 48.572766001205949 ], [ 7.792969807187403, 48.572950349508723 ], [ 7.79187174872105, 48.573080477317781 ], [ 7.78995424363802, 48.572039445467958 ], [ 7.787430348058646, 48.570607991676503 ], [ 7.786709235035969, 48.570174209799667 ], [ 7.784513118103267, 48.568504114831377 ], [ 7.783923116539259, 48.570456168442888 ], [ 7.782349779035235, 48.577135959490562 ], [ 7.78251366835857, 48.578588914052304 ], [ 7.792445361352724, 48.574641984903643 ], [ 7.793789253804077, 48.574229925085859 ], [ 7.794412033232754, 48.574338362205623 ], [ 7.794936479067431, 48.573817861909703 ], [ 7.794084254586084, 48.573687735998455 ], [ 7.794231754977088, 48.573644360620293 ] ] ], [ [ [ 7.780841997260546, 48.575899830942511 ], [ 7.782612001952573, 48.570000696006986 ], [ 7.780973108719214, 48.569740424201591 ], [ 7.779563660538525, 48.571258657514441 ], [ 7.778318101681173, 48.571605675871162 ], [ 7.777826433711165, 48.5710634586422 ], [ 7.776580874853813, 48.571475544266484 ], [ 7.777170876417822, 48.572104510586527 ], [ 7.777400321470492, 48.572473211343556 ], [ 7.777433099335159, 48.572798533308216 ], [ 7.777334765741156, 48.573123853179695 ], [ 7.777203654282489, 48.573557609752299 ], [ 7.777138098553153, 48.573622672917232 ], [ 7.779268659756521, 48.57466367216945 ], [ 7.780841997260546, 48.575899830942511 ] ] ] ] } }
]
}
