{
"type": "FeatureCollection",
"name": "26",
"crs": { "type": "name", "properties": { "name": "urn:ogc:def:crs:OGC:1.3:CRS84" } },
"features": [
{ "type": "Feature", "properties": { "id_geometrie": "26" }, "geometry": { "type": "MultiPolygon", "coordinates": [ [ [ [ 7.730610821079513, 48.519291164429603 ], [ 7.731352920685462, 48.519637063817875 ], [ 7.732507297850271, 48.519855525372485 ], [ 7.733111971603267, 48.519782704958963 ], [ 7.731902624097274, 48.517488808348226 ], [ 7.734513715303391, 48.517033657782342 ], [ 7.733991497062168, 48.517780102564352 ], [ 7.734403774621028, 48.517780102564352 ], [ 7.737207262021279, 48.517161100352979 ], [ 7.737207262021279, 48.517543426141337 ], [ 7.741000215562794, 48.517816514223611 ], [ 7.741522433804017, 48.517889337463586 ], [ 7.741439978292244, 48.518271657756003 ], [ 7.742374474092326, 48.518999878902264 ], [ 7.743391425404183, 48.518562947470713 ], [ 7.741769800339333, 48.514757843614085 ], [ 7.740258115956845, 48.515030946712123 ], [ 7.740423026980389, 48.513574379844513 ], [ 7.740395541809798, 48.513082779075518 ], [ 7.7400932049333, 48.511644364245086 ], [ 7.740203145615664, 48.510897829060255 ], [ 7.741439978292244, 48.509295472501229 ], [ 7.740368056639205, 48.508894875444454 ], [ 7.739790868056802, 48.50984173611149 ], [ 7.737344687874232, 48.510588286855501 ], [ 7.736410192074147, 48.511116328301604 ], [ 7.73531078525052, 48.511280202114314 ], [ 7.734238863597484, 48.511280202114314 ], [ 7.733441793650353, 48.511152744750234 ], [ 7.730418424885378, 48.510897829060255 ], [ 7.729346503232342, 48.510952453958915 ], [ 7.729044166355843, 48.510988870525324 ], [ 7.728412007432259, 48.51224522603907 ], [ 7.728659373967574, 48.51417521875139 ], [ 7.729758780791203, 48.517598043875559 ], [ 7.730610821079513, 48.519291164429603 ] ] ] ] } }
]
}
