{
"type": "FeatureCollection",
"name": "28",
"crs": { "type": "name", "properties": { "name": "urn:ogc:def:crs:OGC:1.3:CRS84" } },
"features": [
{ "type": "Feature", "properties": { "id_geometrie": "28" }, "geometry": { "type": "MultiPolygon", "coordinates": [ [ [ [ 7.825719818262271, 48.66527104145333 ], [ 7.826558115965285, 48.66452677234885 ], [ 7.825912214456403, 48.664127403907919 ], [ 7.827190274888872, 48.663573728788982 ], [ 7.827135304547691, 48.663492038502412 ], [ 7.827739978300685, 48.663246966848291 ], [ 7.827946117080115, 48.663610035540501 ], [ 7.828248453956614, 48.663800645556911 ], [ 7.830199901068553, 48.664907984726682 ], [ 7.830364812092097, 48.665016902019282 ], [ 7.8309420006745, 48.66536180522634 ], [ 7.831409248574543, 48.665516103265297 ], [ 7.832220061106967, 48.665715782379152 ], [ 7.832563625739351, 48.667340414854088 ], [ 7.832316259204037, 48.667766985649273 ], [ 7.831835268718698, 48.668429524618368 ], [ 7.829663940242034, 48.667394870901326 ], [ 7.829732653168511, 48.667231502583029 ], [ 7.826860452841785, 48.665906384431629 ], [ 7.826200808747608, 48.665497950579343 ], [ 7.8259259570417, 48.665352728856384 ], [ 7.825719818262271, 48.66527104145333 ] ] ] ] } }
]
}
