{
"type": "FeatureCollection",
"name": "29",
"crs": { "type": "name", "properties": { "name": "urn:ogc:def:crs:OGC:1.3:CRS84" } },
"features": [
{ "type": "Feature", "properties": { "id_geometrie": "29" }, "geometry": { "type": "MultiPolygon", "coordinates": [ [ [ [ 7.820186044104937, 48.663005556812422 ], [ 7.821030375525769, 48.662631329776069 ], [ 7.820497113575769, 48.662110342412412 ], [ 7.820885950414311, 48.661970922345382 ], [ 7.820052728617435, 48.661053675447668 ], [ 7.820641538687227, 48.660752814829813 ], [ 7.820152715233062, 48.660363894784652 ], [ 7.819719439898686, 48.661141731874153 ], [ 7.818119654048687, 48.661706756950252 ], [ 7.818441833143479, 48.662198396992899 ], [ 7.820186044104937, 48.663005556812422 ] ] ] ] } }
]
}
