{
"type": "FeatureCollection",
"name": "30",
"crs": { "type": "name", "properties": { "name": "urn:ogc:def:crs:OGC:1.3:CRS84" } },
"features": [
{ "type": "Feature", "properties": { "id_geometrie": "30" }, "geometry": { "type": "MultiPolygon", "coordinates": [ [ [ [ 7.672536980036847, 48.490938835008464 ], [ 7.671044647413486, 48.487617246360543 ], [ 7.671865430356334, 48.487477124935303 ], [ 7.674700862340719, 48.487452397584789 ], [ 7.674763042866696, 48.488424997615908 ], [ 7.675471900862791, 48.490386625671974 ], [ 7.672536980036847, 48.490938835008464 ] ] ] ] } }
]
}
