{
"type": "FeatureCollection",
"name": "34",
"crs": { "type": "name", "properties": { "name": "urn:ogc:def:crs:OGC:1.3:CRS84" } },
"features": [
{ "type": "Feature", "properties": { "id_geometrie": "34" }, "geometry": { "type": "MultiPolygon", "coordinates": [ [ [ [ 7.749584664680438, 48.582084249698042 ], [ 7.749442144031388, 48.582035361663998 ], [ 7.74968495698903, 48.581839809054927 ], [ 7.749959441202021, 48.58150806629132 ], [ 7.749009303541674, 48.581148384834933 ], [ 7.749067367509808, 48.581102987964343 ], [ 7.750033340797824, 48.58143124134083 ], [ 7.750603423394035, 48.580764256181411 ], [ 7.751046820968864, 48.58088647925144 ], [ 7.751131277649782, 48.580792192909186 ], [ 7.751585232309727, 48.580945844635977 ], [ 7.751685524618316, 48.580973781263395 ], [ 7.752292557012427, 48.58046393538266 ], [ 7.752577598310531, 48.580589651282992 ], [ 7.752662054991452, 48.580596635490501 ], [ 7.752836246895848, 48.580687430100419 ], [ 7.753047388598148, 48.580781716638086 ], [ 7.752577598310531, 48.581385844724295 ], [ 7.752989324630013, 48.581532510569254 ], [ 7.752941817746996, 48.581605843332142 ], [ 7.753221580502542, 48.581759492585597 ], [ 7.753258530300446, 48.581749016514976 ], [ 7.753353544066481, 48.581745524490955 ], [ 7.752656776448894, 48.582730265707156 ], [ 7.751426876033, 48.582346149075292 ], [ 7.751152391820012, 48.582524239876669 ], [ 7.750582309223805, 48.58224138948723 ], [ 7.750629816106823, 48.582199485591225 ], [ 7.749827477638086, 48.581899173319805 ], [ 7.749674399903919, 48.581972505550731 ], [ 7.749584664680438, 48.582084249698042 ] ] ] ] } }
]
}
