{
"type": "FeatureCollection",
"name": "6",
"crs": { "type": "name", "properties": { "name": "urn:ogc:def:crs:OGC:1.3:CRS84" } },
"features": [
{ "type": "Feature", "properties": { "id_geometrie": "6" }, "geometry": { "type": "MultiPolygon", "coordinates": [ [ [ [ 7.701170797803226, 48.610160287308631 ], [ 7.69965167362743, 48.609417889813855 ], [ 7.699354453679993, 48.609810925141325 ], [ 7.697372987363739, 48.608522631259028 ], [ 7.695622692117714, 48.609570737249172 ], [ 7.691065319590329, 48.606186150024804 ], [ 7.694764056714003, 48.603980587250149 ], [ 7.694202641257732, 48.603543830721243 ], [ 7.696052009819569, 48.602473761263347 ], [ 7.699519575873013, 48.604919600997853 ], [ 7.701335919996246, 48.603871398472002 ], [ 7.703515532944127, 48.605574716529212 ], [ 7.704440217225045, 48.604875926326955 ], [ 7.705695145892007, 48.605989618637089 ], [ 7.706718903488739, 48.607714701377439 ], [ 7.70549699926038, 48.608020406096053 ], [ 7.70549699926038, 48.608326108964022 ], [ 7.701996408768331, 48.60974541946586 ], [ 7.701170797803226, 48.610160287308631 ] ] ] ] } }
]
}
